NORAD_CAT_ID,OBJECT_NAME,OBJECT_TYPE,EPOCH,MEAN_MOTION,ECCENTRICITY,INCLINATION,RA_OF_ASC_NODE,ARG_OF_PERICENTER,MEAN_ANOMALY,BSTAR,MEAN_MOTION_DOT,MEAN_MOTION_DDOT,TLE_LINE0,TLE_LINE1,TLE_LINE2,SEMIMAJOR_AXIS,PERIOD,APOGEE,PERIGEE,DECAYED
51109.0,STARLINK-3358,PAYLOAD,2024-05-20 19:58:13,15.08837487,0.0001141,53.2181,2.311,82.4022,277.7099,0.00082106,0.00012802,0.0,0 STARLINK-3358,1 51109U 22005F   24141.83209637  .00012802  00000-0  82106-3 0  9998,2 51109  53.2181   2.3110 0001141  82.4022 277.7099 15.08837487130679,6917.888,95.438,540.542,538.964,0.0
51109.0,STARLINK-3358,PAYLOAD,2024-05-20 21:33:36,15.08838569,0.0001363,53.2181,2.0133,102.7147,257.3998,0.0007982,0.00012438,0.0,0 STARLINK-3358,1 51109U 22005F   24141.89833580  .00012438  00000-0  79820-3 0  9998,2 51109  53.2181   2.0133 0001363 102.7147 257.3998 15.08838569129347,6917.885,95.438,540.693,538.807,0.0
51109.0,STARLINK-3358,PAYLOAD,2024-05-21 19:49:00,15.0884574,0.000142,53.2185,357.8496,104.2856,255.8294,0.00061465,9.509e-05,0.0,0 STARLINK-3358,1 51109U 22005F   24142.82569729  .00009509  00000-0  61465-3 0  9994,2 51109  53.2185 357.8496 0001420 104.2856 255.8294 15.08845740130828,6917.863,95.437,540.71,538.746,0.0
51109.0,STARLINK-3358,PAYLOAD,2024-05-21 21:24:23,15.08843948,0.0001309,53.2181,357.5522,97.1265,262.9876,0.00049069,7.531e-05,0.0,0 STARLINK-3358,1 51109U 22005F   24142.89193762  .00007531  00000-0  49069-3 0  9990,2 51109  53.2181 357.5522 0001309  97.1265 262.9876 15.08843948129495,6917.868,95.437,540.639,538.828,0.0
51109.0,STARLINK-3358,PAYLOAD,2024-05-22 19:39:47,15.08839592,0.0001279,53.2178,353.3875,105.7875,254.3259,0.00013805,1.91e-05,0.0,0 STARLINK-3358,1 51109U 22005F   24143.81929838  .00001910  00000-0  13805-3 0  9998,2 51109  53.2178 353.3875 0001279 105.7875 254.3259 15.08839592130970,6917.882,95.438,540.631,538.862,0.0
51109.0,STARLINK-3358,PAYLOAD,2024-05-23 00:25:56,15.08839452,0.0001285,53.2178,352.4984,101.4831,258.6305,0.00012967,1.776e-05,0.0,0 STARLINK-3358,1 51109U 22005F   24144.01801956  .00001776  00000-0  12967-3 0  9999,2 51109  53.2178 352.4984 0001285 101.4831 258.6305 15.08839452129661,6917.882,95.438,540.636,538.858,0.0
51109.0,STARLINK-3358,PAYLOAD,2024-05-23 21:05:57,15.08841665,0.0001322,53.2177,348.6315,77.7152,282.3988,0.00015579,2.192e-05,0.0,0 STARLINK-3358,1 51109U 22005F   24144.87914099  .00002192  00000-0  15579-3 0  9991,2 51109  53.2177 348.6315 0001322  77.7152 282.3988 15.08841665129792,6917.875,95.437,540.655,538.826,0.0
51109.0,STARLINK-3358,PAYLOAD,2024-05-24 22:32:07,15.08844302,0.0001075,53.2169,343.8742,93.5073,266.6042,0.00015545,2.187e-05,0.0,0 STARLINK-3358,1 51109U 22005F   24145.93898042  .00002187  00000-0  15545-3 0  9995,2 51109  53.2169 343.8742 0001075  93.5073 266.6042 15.08844302129952,6917.867,95.437,540.476,538.989,0.0
51109.0,STARLINK-3358,PAYLOAD,2024-05-25 12:50:36,15.08849031,0.0002116,53.2148,341.2023,74.443,285.6796,0.00025391,3.756e-05,0.0,0 STARLINK-3358,1 51109U 22005F   24146.53514053  .00003756  00000-0  25391-3 0  9992,2 51109  53.2148 341.2023 0002116  74.4430 285.6796 15.08849031130048,6917.853,95.437,541.182,538.254,0.0
51109.0,STARLINK-3358,PAYLOAD,2024-05-25 19:12:09,15.08833255,9.94e-05,53.2159,340.0111,76.5707,283.5396,-2.6218e-05,-7.05e-06,0.0,0 STARLINK-3358,1 51109U 22005F   24146.80010661 -.00000705  00000-0 -26218-4 0  9991,2 51109  53.2159 340.0111 0000994  76.5707 283.5396 15.08833255131424,6917.901,95.438,540.454,539.078,0.0
51109.0,STARLINK-3358,PAYLOAD,2024-05-26 12:41:24,15.08809172,0.0001217,53.2177,336.7365,101.6297,258.4832,0.00092714,0.00014486,0.0,0 STARLINK-3358,1 51109U 22005F   24147.52875596  .00014486  00000-0  92714-3 0  9999,2 51109  53.2177 336.7365 0001217 101.6297 258.4832 15.08809172130190,6917.975,95.44,540.682,538.998,0.0
51109.0,STARLINK-3358,PAYLOAD,2024-05-26 19:02:55,15.08844452,0.0001128,53.218,335.5479,90.1124,269.9997,8.8566e-05,1.122e-05,0.0,0 STARLINK-3358,1 51109U 22005F   24147.79370163  .00001122  00000-0  88566-4 0  9992,2 51109  53.2180 335.5479 0001128  90.1124 269.9997 15.08844452131571,6917.867,95.437,540.512,538.951,0.0
51109.0,STARLINK-3358,PAYLOAD,2024-05-26 22:13:41,15.08845809,0.0001131,53.2177,334.9528,89.5714,270.5407,9.6624e-05,1.251e-05,0.0,0 STARLINK-3358,1 51109U 22005F   24147.92618008  .00001251  00000-0  96624-4 0  9997,2 51109  53.2177 334.9528 0001131  89.5714 270.5407 15.08845809130251,6917.863,95.437,540.51,538.945,0.0
51109.0,STARLINK-3358,PAYLOAD,2024-05-27 18:53:43,15.0883829,0.0001164,53.2175,331.0866,103.9933,256.1189,7.4916e-05,9.05e-06,0.0,0 STARLINK-3358,1 51109U 22005F   24148.78730343  .00000905  00000-0  74916-4 0  9994,2 51109  53.2175 331.0866 0001164 103.9933 256.1189 15.08838290131728,6917.886,95.438,540.556,538.945,0.0
51109.0,STARLINK-3358,PAYLOAD,2024-05-27 22:04:29,15.08838037,0.0001161,53.2177,330.492,104.7632,255.3489,6.7641e-05,7.89e-06,0.0,0 STARLINK-3358,1 51109U 22005F   24148.91978371  .00000789  00000-0  67641-4 0  9991,2 51109  53.2177 330.4920 0001161 104.7632 255.3489 15.08838037130403,6917.886,95.438,540.555,538.948,0.0
51109.0,STARLINK-3358,PAYLOAD,2024-05-28 12:22:57,15.08841062,0.0001144,53.2177,327.8153,106.5987,253.5131,3.8407e-05,3.23e-06,0.0,0 STARLINK-3358,1 51109U 22005F   24149.51594252  .00000323  00000-0  38407-4 0  9992,2 51109  53.2177 327.8153 0001144 106.5987 253.5131 15.08841062130490,6917.877,95.437,540.534,538.951,0.0
51109.0,STARLINK-3358,PAYLOAD,2024-05-28 18:44:30,15.08840126,0.0001142,53.2178,326.6257,111.1062,249.0053,1.8788e-05,1.1e-07,0.0,0 STARLINK-3358,1 51109U 22005F   24149.78090279  .00000011  00000-0  18788-4 0  9995,2 51109  53.2178 326.6257 0001142 111.1062 249.0053 15.08840126130535,6917.88,95.438,540.535,538.955,0.0
51109.0,STARLINK-3358,PAYLOAD,2024-05-29 12:13:44,15.08840267,0.0001036,53.2177,323.355,104.0164,256.0943,7.1806e-05,8.55e-06,0.0,0 STARLINK-3358,1 51109U 22005F   24150.50954144  .00000855  00000-0  71806-4 0  9993,2 51109  53.2177 323.3550 0001036 104.0164 256.0943 15.08840267131982,6917.88,95.438,540.461,539.028,0.0
51109.0,STARLINK-3358,PAYLOAD,2024-05-29 18:35:16,15.08841162,0.000106,53.2177,322.1656,105.0543,255.0567,7.4653e-05,9.01e-06,0.0,0 STARLINK-3358,1 51109U 22005F   24150.77450068  .00000901  00000-0  74653-4 0  9993,2 51109  53.2177 322.1656 0001060 105.0543 255.0567 15.08841162130687,6917.877,95.437,540.475,539.009,0.0
51109.0,STARLINK-3358,PAYLOAD,2024-05-30 10:29:08,15.08842405,0.0001046,53.2177,319.1926,103.9908,256.1201,8.139e-05,1.008e-05,0.0,0 STARLINK-3358,1 51109U 22005F   24151.43689981  .00001008  00000-0  81390-4 0  9990,2 51109  53.2177 319.1926 0001046 103.9908 256.1201 15.08842405130788,6917.873,95.437,540.462,539.014,0.0
51109.0,STARLINK-3358,PAYLOAD,2024-05-30 18:26:03,15.08843485,9.96e-05,53.2174,317.7047,98.0998,262.0107,9.4778e-05,1.221e-05,0.0,0 STARLINK-3358,1 51109U 22005F   24151.76809931  .00001221  00000-0  94778-4 0  9996,2 51109  53.2174 317.7047 0000996  98.0998 262.0107 15.08843485132174,6917.87,95.437,540.424,539.046,0.0
51109.0,STARLINK-3358,PAYLOAD,2024-05-31 10:19:55,15.08840305,0.0001009,53.2174,314.7322,93.2097,266.9011,4.4717e-05,4.24e-06,0.0,0 STARLINK-3358,1 51109U 22005F   24152.43050246  .00000424  00000-0  44717-4 0  9990,2 51109  53.2174 314.7322 0001009  93.2097 266.9011 15.08840305130937,6917.879,95.438,540.442,539.046,0.0
51109.0,STARLINK-3358,PAYLOAD,2024-05-31 18:16:51,15.08839563,0.0001104,53.2174,313.246,86.0864,274.0255,3.1792e-05,2.18e-06,0.0,0 STARLINK-3358,1 51109U 22005F   24152.76170343  .00000218  00000-0  31792-4 0  9997,2 51109  53.2174 313.2460 0001104  86.0864 274.0255 15.08839563132321,6917.882,95.438,540.51,538.983,0.0
51109.0,STARLINK-3358,PAYLOAD,2024-06-01 14:56:52,15.0883382,0.0001214,53.2174,309.3807,71.648,288.4644,9.9643e-06,-1.29e-06,0.0,0 STARLINK-3358,1 51109U 22005F   24153.62283012 -.00000129  00000-0  99643-5 0  9993,2 51109  53.2174 309.3807 0001214  71.6480 288.4644 15.08833820131115,6917.899,95.438,540.604,538.924,0.0
51109.0,STARLINK-3358,PAYLOAD,2024-06-01 18:07:39,15.08830343,0.000118,53.2181,308.7864,71.98,288.1321,-2.1807e-05,-6.35e-06,0.0,0 STARLINK-3358,1 51109U 22005F   24153.75531383 -.00000635  00000-0 -21807-4 0  9993,2 51109  53.2181 308.7864 0001180  71.9800 288.1321 15.08830343132476,6917.91,95.438,540.591,538.959,0.0
51109.0,STARLINK-3358,PAYLOAD,2024-06-02 03:39:57,15.08836317,0.0001106,53.2186,307.002,82.2326,277.8791,-8.5381e-06,-4.24e-06,0.0,0 STARLINK-3358,1 51109U 22005F   24154.15275108 -.00000424  00000-0 -85381-5 0  9992,2 51109  53.2186 307.0020 0001106  82.2326 277.8791 15.08836317132533,6917.892,95.438,540.522,538.992,0.0
51109.0,STARLINK-3358,PAYLOAD,2024-06-02 19:33:48,15.08849058,0.000101,53.2182,304.0271,89.7352,270.3756,0.00015312,2.151e-05,0.0,0 STARLINK-3358,1 51109U 22005F   24154.81513897  .00002151  00000-0  15312-3 0  9997,2 51109  53.2182 304.0271 0001010  89.7352 270.3756 15.08849058132635,6917.853,95.437,540.416,539.019,0.0
51109.0,STARLINK-3358,PAYLOAD,2024-06-03 03:30:43,15.08857594,9.94e-05,53.2184,302.5411,96.4302,263.6804,0.00016922,2.408e-05,0.0,0 STARLINK-3358,1 51109U 22005F   24155.14633194  .00002408  00000-0  16922-3 0  9990,2 51109  53.2184 302.5411 0000994  96.4302 263.6804 15.08857594132684,6917.827,95.436,540.379,539.004,0.0
51109.0,STARLINK-3358,PAYLOAD,2024-06-03 16:13:48,15.08845267,0.0001948,53.2179,300.1598,100.0647,260.0565,0.00023661,3.48e-05,0.0,0 STARLINK-3358,1 51109U 22005F   24155.67626029  .00003480  00000-0  23661-3 0  9996,2 51109  53.2179 300.1598 0001948 100.0647 260.0565 15.08845267132760,6917.864,95.437,541.077,538.382,0.0
51109.0,STARLINK-3358,PAYLOAD,2024-06-04 19:15:22,15.08851318,0.0001068,53.2158,295.1077,87.1333,272.9781,-0.00011135,-2.06e-05,0.0,0 STARLINK-3358,1 51109U 22005F   24156.80234612 -.00002060  00000-0 -11135-3 0  9993,2 51109  53.2158 295.1077 0001068  87.1333 272.9781 15.08851318132937,6917.846,95.437,540.45,538.972,0.0
